STARLINK-1735
1 46565U 20070AK  26090.78953542  .00114505  00000+0  10521-2 0  9991
2 46565  53.0440  10.5088 0004066 234.8912 125.1722 15.66864433303777
